[{"OBJECT_NAME":"ONEWEB-0233","OBJECT_ID":"2021-045AE","EPOCH":"2026-05-18T03:04:43.697856","MEAN_MOTION":13.15550373,"ECCENTRICITY":0.0001583,"INCLINATION":87.8981,"RA_OF_ASC_NODE":265.2261,"ARG_OF_PERICENTER":93.9171,"MEAN_ANOMALY":266.2141,"EPHEMERIS_TYPE":0,"CLASSIFICATION_TYPE":"U","NORAD_CAT_ID":48795,"ELEMENT_SET_NO":999,"REV_AT_EPOCH":24034,"BSTAR":-0.00015670000000000001,"MEAN_MOTION_DOT":-4.6e-07,"MEAN_MOTION_DDOT":0.0},{"OBJECT_NAME":"ONEWEB-0190","OBJECT_ID":"2021-045AF","EPOCH":"2026-05-18T02:46:41.885184","MEAN_MOTION":13.15549297,"ECCENTRICITY":0.0001605,"INCLINATION":87.898,"RA_OF_ASC_NODE":265.1901,"ARG_OF_PERICENTER":77.2701,"MEAN_ANOMALY":282.8608,"EPHEMERIS_TYPE":0,"CLASSIFICATION_TYPE":"U","NORAD_CAT_ID":48796,"ELEMENT_SET_NO":999,"REV_AT_EPOCH":24041,"BSTAR":0.0004196,"MEAN_MOTION_DOT":1.71e-06,"MEAN_MOTION_DDOT":0.0},{"OBJECT_NAME":"ONEWEB-0236","OBJECT_ID":"2021-045AG","EPOCH":"2026-05-18T01:22:16.974624","MEAN_MOTION":13.15549164,"ECCENTRICITY":0.0001862,"INCLINATION":87.8985,"RA_OF_ASC_NODE":265.2123,"ARG_OF_PERICENTER":104.3572,"MEAN_ANOMALY":255.7765,"EPHEMERIS_TYPE":0,"CLASSIFICATION_TYPE":"U","NORAD_CAT_ID":48797,"ELEMENT_SET_NO":999,"REV_AT_EPOCH":24029,"BSTAR":-0.00019796,"MEAN_MOTION_DOT":-6.2e-07,"MEAN_MOTION_DDOT":0.0},{"OBJECT_NAME":"ONEWEB-0248","OBJECT_ID":"2021-045AH","EPOCH":"2026-05-18T01:40:30.283680","MEAN_MOTION":13.15547006,"ECCENTRICITY":0.000141,"INCLINATION":87.899,"RA_OF_ASC_NODE":265.1898,"ARG_OF_PERICENTER":91.8637,"MEAN_ANOMALY":268.2655,"EPHEMERIS_TYPE":0,"CLASSIFICATION_TYPE":"U","NORAD_CAT_ID":48798,"ELEMENT_SET_NO":999,"REV_AT_EPOCH":24045,"BSTAR":-6.823300000000001e-05,"MEAN_MOTION_DOT":-1.3e-07,"MEAN_MOTION_DDOT":0.0},{"OBJECT_NAME":"ONEWEB-0225","OBJECT_ID":"2021-045AJ","EPOCH":"2026-05-18T02:12:27.612000","MEAN_MOTION":13.15546914,"ECCENTRICITY":0.0001627,"INCLINATION":87.8979,"RA_OF_ASC_NODE":265.1955,"ARG_OF_PERICENTER":82.3895,"MEAN_ANOMALY":277.742,"EPHEMERIS_TYPE":0,"CLASSIFICATION_TYPE":"U","NORAD_CAT_ID":48799,"ELEMENT_SET_NO":999,"REV_AT_EPOCH":24046,"BSTAR":-8.6437e-05,"MEAN_MOTION_DOT":-2e-07,"MEAN_MOTION_DDOT":0.0},{"OBJECT_NAME":"ONEWEB-0215","OBJECT_ID":"2021-045AK","EPOCH":"2026-05-18T01:29:07.378080","MEAN_MOTION":13.15549782,"ECCENTRICITY":0.000143,"INCLINATION":87.8997,"RA_OF_ASC_NODE":265.1818,"ARG_OF_PERICENTER":79.4344,"MEAN_ANOMALY":280.6947,"EPHEMERIS_TYPE":0,"CLASSIFICATION_TYPE":"U","NORAD_CAT_ID":48800,"ELEMENT_SET_NO":999,"REV_AT_EPOCH":24033,"BSTAR":-8.3356e-05,"MEAN_MOTION_DOT":-1.9e-07,"MEAN_MOTION_DDOT":0.0},{"OBJECT_NAME":"ONEWEB-0216","OBJECT_ID":"2021-045AL","EPOCH":"2026-05-18T01:42:48.565152","MEAN_MOTION":13.15549577,"ECCENTRICITY":0.0001945,"INCLINATION":87.8991,"RA_OF_ASC_NODE":265.1958,"ARG_OF_PERICENTER":99.4051,"MEAN_ANOMALY":260.7299,"EPHEMERIS_TYPE":0,"CLASSIFICATION_TYPE":"U","NORAD_CAT_ID":48801,"ELEMENT_SET_NO":999,"REV_AT_EPOCH":24034,"BSTAR":-0.00055114,"MEAN_MOTION_DOT":-1.95e-06,"MEAN_MOTION_DDOT":0.0},{"OBJECT_NAME":"ONEWEB-0239","OBJECT_ID":"2021-045AM","EPOCH":"2026-05-18T01:49:37.841088","MEAN_MOTION":13.15547949,"ECCENTRICITY":0.0001181,"INCLINATION":87.8979,"RA_OF_ASC_NODE":265.2035,"ARG_OF_PERICENTER":81.3018,"MEAN_ANOMALY":278.8246,"EPHEMERIS_TYPE":0,"CLASSIFICATION_TYPE":"U","NORAD_CAT_ID":48802,"ELEMENT_SET_NO":999,"REV_AT_EPOCH":24038,"BSTAR":-0.0007431,"MEAN_MOTION_DOT":-2.67e-06,"MEAN_MOTION_DDOT":0.0},{"OBJECT_NAME":"ONEWEB-0249","OBJECT_ID":"2021-060A","EPOCH":"2026-05-18T04:27:58.080096","MEAN_MOTION":13.16593504,"ECCENTRICITY":0.0001867,"INCLINATION":87.9107,"RA_OF_ASC_NODE":234.7347,"ARG_OF_PERICENTER":102.617,"MEAN_ANOMALY":257.517,"EPHEMERIS_TYPE":0,"CLASSIFICATION_TYPE":"U","NORAD_CAT_ID":48967,"ELEMENT_SET_NO":999,"REV_AT_EPOCH":23566,"BSTAR":0.00052916,"MEAN_MOTION_DOT":2.15e-06,"MEAN_MOTION_DDOT":0.0},{"OBJECT_NAME":"ONEWEB-0250","OBJECT_ID":"2021-060B","EPOCH":"2026-05-17T23:16:01.857216","MEAN_MOTION":13.2583107,"ECCENTRICITY":0.0001561,"INCLINATION":87.9106,"RA_OF_ASC_NODE":232.6324,"ARG_OF_PERICENTER":130.0248,"MEAN_ANOMALY":230.1025,"EPHEMERIS_TYPE":0,"CLASSIFICATION_TYPE":"U","NORAD_CAT_ID":48968,"ELEMENT_SET_NO":999,"REV_AT_EPOCH":23621,"BSTAR":-3.9879e-05,"MEAN_MOTION_DOT":-4e-08,"MEAN_MOTION_DDOT":0.0},{"OBJECT_NAME":"ONEWEB-0252","OBJECT_ID":"2021-060D","EPOCH":"2026-05-17T23:44:07.040832","MEAN_MOTION":13.16595355,"ECCENTRICITY":0.0002168,"INCLINATION":87.9106,"RA_OF_ASC_NODE":234.7657,"ARG_OF_PERICENTER":96.1477,"MEAN_ANOMALY":263.9901,"EPHEMERIS_TYPE":0,"CLASSIFICATION_TYPE":"U","NORAD_CAT_ID":48970,"ELEMENT_SET_NO":999,"REV_AT_EPOCH":23568,"BSTAR":-0.00037245000000000003,"MEAN_MOTION_DOT":-1.3e-06,"MEAN_MOTION_DDOT":0.0},{"OBJECT_NAME":"ONEWEB-0253","OBJECT_ID":"2021-060E","EPOCH":"2026-05-18T04:56:26.452608","MEAN_MOTION":13.16596397,"ECCENTRICITY":0.0001891,"INCLINATION":87.9107,"RA_OF_ASC_NODE":234.7285,"ARG_OF_PERICENTER":100.5381,"MEAN_ANOMALY":259.5963,"EPHEMERIS_TYPE":0,"CLASSIFICATION_TYPE":"U","NORAD_CAT_ID":48971,"ELEMENT_SET_NO":999,"REV_AT_EPOCH":23564,"BSTAR":0.00025396999999999996,"MEAN_MOTION_DOT":1.1e-06,"MEAN_MOTION_DDOT":0.0},{"OBJECT_NAME":"ONEWEB-0254","OBJECT_ID":"2021-060F","EPOCH":"2026-05-17T23:41:50.089056","MEAN_MOTION":13.16595695,"ECCENTRICITY":0.0001675,"INCLINATION":87.9107,"RA_OF_ASC_NODE":234.7682,"ARG_OF_PERICENTER":97.6575,"MEAN_ANOMALY":262.4746,"EPHEMERIS_TYPE":0,"CLASSIFICATION_TYPE":"U","NORAD_CAT_ID":48972,"ELEMENT_SET_NO":999,"REV_AT_EPOCH":23561,"BSTAR":-0.00011744,"MEAN_MOTION_DOT":-3.2e-07,"MEAN_MOTION_DDOT":0.0},{"OBJECT_NAME":"ONEWEB-0255","OBJECT_ID":"2021-060G","EPOCH":"2026-05-18T00:36:32.605632","MEAN_MOTION":13.16591776,"ECCENTRICITY":0.0001849,"INCLINATION":87.9105,"RA_OF_ASC_NODE":234.7682,"ARG_OF_PERICENTER":97.2141,"MEAN_ANOMALY":262.92,"EPHEMERIS_TYPE":0,"CLASSIFICATION_TYPE":"U","NORAD_CAT_ID":48973,"ELEMENT_SET_NO":999,"REV_AT_EPOCH":23569,"BSTAR":1.762e-05,"MEAN_MOTION_DOT":2e-07,"MEAN_MOTION_DDOT":0.0},{"OBJECT_NAME":"ONEWEB-0256","OBJECT_ID":"2021-060H","EPOCH":"2026-05-18T04:53:02.760288","MEAN_MOTION":13.16596455,"ECCENTRICITY":0.000209,"INCLINATION":87.91,"RA_OF_ASC_NODE":234.7387,"ARG_OF_PERICENTER":101.1799,"MEAN_ANOMALY":258.9567,"EPHEMERIS_TYPE":0,"CLASSIFICATION_TYPE":"U","NORAD_CAT_ID":48974,"ELEMENT_SET_NO":999,"REV_AT_EPOCH":23568,"BSTAR":0.00012171,"MEAN_MOTION_DOT":5.9e-07,"MEAN_MOTION_DDOT":0.0},{"OBJECT_NAME":"ONEWEB-0257","OBJECT_ID":"2021-060J","EPOCH":"2026-05-17T16:53:43.097856","MEAN_MOTION":13.16596208,"ECCENTRICITY":0.0001953,"INCLINATION":87.9103,"RA_OF_ASC_NODE":234.8234,"ARG_OF_PERICENTER":96.9526,"MEAN_ANOMALY":263.1828,"EPHEMERIS_TYPE":0,"CLASSIFICATION_TYPE":"U","NORAD_CAT_ID":48975,"ELEMENT_SET_NO":999,"REV_AT_EPOCH":23557,"BSTAR":9.0896e-05,"MEAN_MOTION_DOT":4.8e-07,"MEAN_MOTION_DDOT":0.0}]