ONEWEB-0233             
1 48795U 21045AE  26138.12828354 -.00000046  00000+0 -15670-3 0  9991
2 48795  87.8981 265.2261 0001583  93.9171 266.2141 13.15550373240345
ONEWEB-0190             
1 48796U 21045AF  26138.11576256  .00000171  00000+0  41960-3 0  9990
2 48796  87.8980 265.1901 0001605  77.2701 282.8608 13.15549297240417
ONEWEB-0236             
1 48797U 21045AG  26138.05714091 -.00000062  00000+0 -19796-3 0  9998
2 48797  87.8985 265.2123 0001862 104.3572 255.7765 13.15549164240295
ONEWEB-0248             
1 48798U 21045AH  26138.06979495 -.00000013  00000+0 -68233-4 0  9998
2 48798  87.8990 265.1898 0001410  91.8637 268.2655 13.15547006240459
ONEWEB-0225             
1 48799U 21045AJ  26138.09198625 -.00000020  00000+0 -86437-4 0  9994
2 48799  87.8979 265.1955 0001627  82.3895 277.7420 13.15546914240465
ONEWEB-0215             
1 48800U 21045AK  26138.06189095 -.00000019  00000+0 -83356-4 0  9990
2 48800  87.8997 265.1818 0001430  79.4344 280.6947 13.15549782240333
ONEWEB-0216             
1 48801U 21045AL  26138.07139543 -.00000195  00000+0 -55114-3 0  9990
2 48801  87.8991 265.1958 0001945  99.4051 260.7299 13.15549577240343
ONEWEB-0239             
1 48802U 21045AM  26138.07613242 -.00000267  00000+0 -74310-3 0  9993
2 48802  87.8979 265.2035 0001181  81.3018 278.8246 13.15547949240389
ONEWEB-0249             
1 48967U 21060A   26138.18608889  .00000215  00000+0  52916-3 0  9994
2 48967  87.9107 234.7347 0001867 102.6170 257.5170 13.16593504235663
ONEWEB-0250             
1 48968U 21060B   26137.96946594 -.00000004  00000+0 -39879-4 0  9990
2 48968  87.9106 232.6324 0001561 130.0248 230.1025 13.25831070236218
ONEWEB-0252             
1 48970U 21060D   26137.98897038 -.00000130  00000+0 -37245-3 0  9997
2 48970  87.9106 234.7657 0002168  96.1477 263.9901 13.16595355235683
ONEWEB-0253             
1 48971U 21060E   26138.20586172  .00000110  00000+0  25397-3 0  9999
2 48971  87.9107 234.7285 0001891 100.5381 259.5963 13.16596397235640
ONEWEB-0254             
1 48972U 21060F   26137.98738529 -.00000032  00000+0 -11744-3 0  9995
2 48972  87.9107 234.7682 0001675  97.6575 262.4746 13.16595695235612
ONEWEB-0255             
1 48973U 21060G   26138.02537738  .00000020  00000+0  17620-4 0  9996
2 48973  87.9105 234.7682 0001849  97.2141 262.9200 13.16591776235693
ONEWEB-0256             
1 48974U 21060H   26138.20350417  .00000059  00000+0  12171-3 0  9991
2 48974  87.9100 234.7387 0002090 101.1799 258.9567 13.16596455235683
ONEWEB-0257             
1 48975U 21060J   26137.70397104  .00000048  00000+0  90896-4 0  9999
2 48975  87.9103 234.8234 0001953  96.9526 263.1828 13.16596208235577
